{"type": "FeatureCollection", "features": [{"type": "Feature", "geometry": {"type": "Polygon", "coordinates": [[[-1.8682666780880115, 6.908301604296925], [-1.8691035800270666, 6.910115328015428], [-1.8720800149488401, 6.909963961959929], [-1.872772861285769, 6.907972583120865], [-1.8722268115102634, 6.905808572633822], [-1.8698603475249123, 6.906076355371138], [-1.8682666780880115, 6.908301604296925]]]}, "properties": {"id": "75d5b5c2-b456-4933-a124-85e1ba4af50e", "jurisdiction_code": "GH-AH", "jurisdiction_name": "Ghana Ashanti", "class_label": "agroforestry", "agroforestry_subtype": "shade_cocoa", "confidence_score": 0.803, "area_ha": 21.08, "uncertainty": 0.112, "source": "Synthetic PoC generator (illustrative)", "source_year": 2023, "source_url": null, "processing_method": "Sentinel-2 + Random Forest", "model_version": "v2.2", "created_at": "2026-09-19T14:32:17.565928Z", "data_origin": "synthetic", "generation_method": "Procedural generator (synthetic demo corpus v2, no real-world data)"}}, {"type": "Feature", "geometry": {"type": "Polygon", "coordinates": [[[-2.469922352249393, 7.412635379742331], [-2.4708125743492526, 7.415015899861335], [-2.4742994599445622, 7.414409241712785], [-2.475869156331724, 7.412337676619461], [-2.474456923322677, 7.409661789471853], [-2.471046113441925, 7.41038392268172], [-2.469922352249393, 7.412635379742331]]]}, "properties": {"id": "e26b0046-603d-407b-8d44-c6833c543972", "jurisdiction_code": "GH-AH", "jurisdiction_name": "Ghana Ashanti", "class_label": "agroforestry", "agroforestry_subtype": "shade_cocoa", "confidence_score": 0.885, "area_ha": 23.8, "uncertainty": 0.083, "source": "Synthetic PoC generator (illustrative)", "source_year": 2024, "source_url": null, "processing_method": "PlanetScope + CNN", "model_version": "v1.7", "created_at": "2026-09-19T14:32:17.566011Z", "data_origin": "synthetic", "generation_method": "Procedural generator (synthetic demo corpus v2, no real-world data)"}}, {"type": "Feature", "geometry": {"type": "Polygon", "coordinates": [[[-1.0118066407789699, 5.747068811213724], [-1.0119124097985763, 5.748893595617798], [-1.0144139454266388, 5.7505452449987], [-1.0179965368719632, 5.748827767078435], [-1.0177760188470057, 5.744889697628954], [-1.0150220063030677, 5.744123086934521], [-1.0123501389197522, 5.743224369132491], [-1.0118066407789699, 5.747068811213724]]]}, "properties": {"id": "4f202bb5-4ede-4a1b-8652-17dbb909706a", "jurisdiction_code": "GH-AH", "jurisdiction_name": "Ghana Ashanti", "class_label": "agroforestry", "agroforestry_subtype": "shade_cocoa", "confidence_score": 0.758, "area_ha": 45.36, "uncertainty": 0.26, "source": "Synthetic PoC generator (illustrative)", "source_year": 2022, "source_url": null, "processing_method": "GEDI LiDAR + ML", "model_version": "v2.4", "created_at": "2026-09-19T14:32:17.566066Z", "data_origin": "synthetic", "generation_method": "Procedural generator (synthetic demo corpus v2, no real-world data)"}}, {"type": "Feature", "geometry": {"type": "Polygon", "coordinates": [[[-2.2919895091897207, 5.81624820362526], [-2.2925006974434696, 5.8168102124502985], [-2.293325114066443, 5.817127388190652], [-2.2938974303520845, 5.81648059251293], [-2.2937406126565296, 5.8157397539620925], [-2.2931528672828603, 5.814825610350128], [-2.2921481773777486, 5.815194492962678], [-2.2919895091897207, 5.81624820362526]]]}, "properties": {"id": "5367a8e1-0a6c-474e-a9c9-f3e942d06abd", "jurisdiction_code": "GH-AH", "jurisdiction_name": "Ghana Ashanti", "class_label": "agroforestry", "agroforestry_subtype": "shade_cocoa", "confidence_score": 0.96, "area_ha": 4.28, "uncertainty": 0.039, "source": "Synthetic PoC generator (illustrative)", "source_year": 2021, "source_url": null, "processing_method": "Hybrid Remote Sensing", "model_version": "v2.0", "created_at": "2026-09-19T14:32:17.566117Z", "data_origin": "synthetic", "generation_method": "Procedural generator (synthetic demo corpus v2, no real-world data)"}}, {"type": "Feature", "geometry": {"type": "Polygon", "coordinates": [[[-1.5178391883387437, 5.937572789307995], [-1.5190672646508807, 5.939298267265786], [-1.520427690588042, 5.938578998577241], [-1.5214587853191086, 5.93746389923924], [-1.5205728629155661, 5.93580965733777], [-1.518965650838906, 5.935914903879964], [-1.5178391883387437, 5.937572789307995]]]}, "properties": {"id": "1d3f4f41-c1eb-4169-903d-392a901ecbd0", "jurisdiction_code": "GH-AH", "jurisdiction_name": "Ghana Ashanti", "class_label": "agroforestry", "agroforestry_subtype": "shade_cocoa", "confidence_score": 0.924, "area_ha": 9.36, "uncertainty": 0.096, "source": "Synthetic PoC generator (illustrative)", "source_year": 2021, "source_url": null, "processing_method": "GEDI LiDAR + ML", "model_version": "v1.5", "created_at": "2026-09-19T14:32:17.566192Z", "data_origin": "synthetic", "generation_method": "Procedural generator (synthetic demo corpus v2, no real-world data)"}}, {"type": "Feature", "geometry": {"type": "Polygon", "coordinates": [[[-1.2107466413756256, 7.183877197021962], [-1.2102941882980147, 7.186196233567527], [-1.2129489020892494, 7.186249957557644], [-1.2144818630034642, 7.185573133028185], [-1.2164795354642506, 7.183838660577715], [-1.2148072950479918, 7.182047501880189], [-1.212930409026551, 7.18097114060122], [-1.2115485578375713, 7.181743457934243], [-1.2107466413756256, 7.183877197021962]]]}, "properties": {"id": "7c7b136c-0642-4778-8959-df206116590b", "jurisdiction_code": "GH-AH", "jurisdiction_name": "Ghana Ashanti", "class_label": "agroforestry", "agroforestry_subtype": "alley_cropping", "confidence_score": 0.952, "area_ha": 28.82, "uncertainty": 0.031, "source": "Synthetic PoC generator (illustrative)", "source_year": 2020, "source_url": null, "processing_method": "Hybrid Remote Sensing", "model_version": "v2.1", "created_at": "2026-09-19T14:32:17.566239Z", "data_origin": "synthetic", "generation_method": "Procedural generator (synthetic demo corpus v2, no real-world data)"}}, {"type": "Feature", "geometry": {"type": "Polygon", "coordinates": [[[-2.0165996045954957, 7.361003325131893], [-2.0192587110616014, 7.364664136199522], [-2.0222700233809134, 7.363960862433839], [-2.021783662940358, 7.3600719738882825], [-2.0189549010232057, 7.358210872346573], [-2.0165996045954957, 7.361003325131893]]]}, "properties": {"id": "8847cb6b-debe-45c0-982c-79087480b452", "jurisdiction_code": "GH-AH", "jurisdiction_name": "Ghana Ashanti", "class_label": "agroforestry", "agroforestry_subtype": "shade_cocoa", "confidence_score": 0.889, "area_ha": 27.65, "uncertainty": 0.141, "source": "Synthetic PoC generator (illustrative)", "source_year": 2022, "source_url": null, "processing_method": "Sentinel-2 + Random Forest", "model_version": "v1.1", "created_at": "2026-09-19T14:32:17.566286Z", "data_origin": "synthetic", "generation_method": "Procedural generator (synthetic demo corpus v2, no real-world data)"}}, {"type": "Feature", "geometry": {"type": "Polygon", "coordinates": [[[-0.9971884998280731, 7.263174022060873], [-0.9984234471623282, 7.264627005316557], [-0.999490782663015, 7.265513263302105], [-1.0002342904151766, 7.264646139031822], [-1.000651303184804, 7.263745256158677], [-1.0005623453564074, 7.262562634426848], [-0.9990948207297627, 7.261622781678042], [-0.9983130860875078, 7.262400011359111], [-0.9971884998280731, 7.263174022060873]]]}, "properties": {"id": "26e9f283-36ac-4906-8afc-17bec9d15a2c", "jurisdiction_code": "GH-AH", "jurisdiction_name": "Ghana Ashanti", "class_label": "agroforestry", "agroforestry_subtype": "homegarden", "confidence_score": 0.824, "area_ha": 11.36, "uncertainty": 0.188, "source": "Synthetic PoC generator (illustrative)", "source_year": 2023, "source_url": null, "processing_method": "Sentinel-2 + Random Forest", "model_version": "v2.8", "created_at": "2026-09-19T14:32:17.566346Z", "data_origin": "synthetic", "generation_method": "Procedural generator (synthetic demo corpus v2, no real-world data)"}}, {"type": "Feature", "geometry": {"type": "Polygon", "coordinates": [[[-2.3958395145302323, 5.558661353844563], [-2.3964583310168845, 5.55986932839074], [-2.3980623606073506, 5.5596215644129625], [-2.3978797560272227, 5.55811038676252], [-2.396425264504696, 5.557266851586449], [-2.3958395145302323, 5.558661353844563]]]}, "properties": {"id": "305672ae-ff26-4dea-951a-199a55a85f3a", "jurisdiction_code": "GH-AH", "jurisdiction_name": "Ghana Ashanti", "class_label": "agroforestry", "agroforestry_subtype": "shade_cocoa", "confidence_score": 0.808, "area_ha": 6.07, "uncertainty": 0.127, "source": "Synthetic PoC generator (illustrative)", "source_year": 2020, "source_url": null, "processing_method": "GEDI LiDAR + ML", "model_version": "v3.9", "created_at": "2026-09-19T14:32:17.566393Z", "data_origin": "synthetic", "generation_method": "Procedural generator (synthetic demo corpus v2, no real-world data)"}}, {"type": "Feature", "geometry": {"type": "Polygon", "coordinates": [[[-0.7910979526844395, 6.444610311661449], [-0.7936315933984958, 6.447678489038206], [-0.7970254383671652, 6.448315830416943], [-0.8001128906318411, 6.444675044536321], [-0.7971141365180217, 6.441392090104875], [-0.7930458208315871, 6.440424690650473], [-0.7910979526844395, 6.444610311661449]]]}, "properties": {"id": "169d6cb1-574d-4740-abd1-d3892d926ac9", "jurisdiction_code": "GH-AH", "jurisdiction_name": "Ghana Ashanti", "class_label": "agroforestry", "agroforestry_subtype": "alley_cropping", "confidence_score": 0.843, "area_ha": 62.54, "uncertainty": 0.172, "source": "Synthetic PoC generator (illustrative)", "source_year": 2023, "source_url": null, "processing_method": "GEDI LiDAR + ML", "model_version": "v1.4", "created_at": "2026-09-19T14:32:17.566430Z", "data_origin": "synthetic", "generation_method": "Procedural generator (synthetic demo corpus v2, no real-world data)"}}], "generated_at": "2026-09-19T14:32:17.566447Z", "count": 10}